[Satellite]
VERSION=1.1
NAME=ECHOSTAR 1
NICKNAME=ECHOSTAR 1
TLE1=1 23754U 95073A   17185.56920934 -.00000247  00000-0  00000-0 0  9999
TLE2=2 23754   0.8503  90.1729 0003018  23.4471 296.7911  1.00270937 78661
